BEIJING 1               
1 28890U 05043A   23137.42188013  .00000370  00000+0  83605-4 0  9997
2 28890  98.1548 259.4527 0014584 203.9611 156.0913 14.61786302935923
HJ-1A                   
1 33320U 08041A   23137.44283972  .00000707  00000+0  10342-3 0  9995
2 33320  97.6460 159.3110 0019754 221.6629 138.3079 14.78414155791726
HJ-1B                   
1 33321U 08041B   23137.44057486  .00001021  00000+0  14491-3 0  9994
2 33321  97.6585 163.5478 0032268 242.0198 117.7747 14.78692405791721
YAOGAN 4                
1 33446U 08061A   23137.41780969  .00001188  00000+0  17040-3 0  9997
2 33446  97.8509  73.1432 0016989 128.9311 231.3417 14.78227171778911
DEIMOS-1                
1 35681U 09041A   23137.44817010  .00000555  00000+0  94595-4 0  9998
2 35681  97.6867 335.8638 0001026 157.4146 202.7107 14.72505903740917
UK-DMC 2                
1 35683U 09041C   23137.39612000  .00000879  00000+0  14708-3 0  9992
2 35683  97.7304 298.0890 0001101  89.1242 271.0092 14.72098663740628
RISAT 1                 
1 38248U 12017A   23137.29622184  .00005612  00000+0  29677-3 0  9993
2 38248  97.5425 150.5265 0004239 159.2764 200.8641 15.15860254609334
DMC3-FM1                
1 40715U 15032A   23137.46701512  .00000692  00000+0  92212-4 0  9996
2 40715  97.8042  21.9758 0006798 139.0214 221.1511 14.82711174422772
DMC3-FM2                
1 40716U 15032B   23137.42173054  .00000676  00000+0  90144-4 0  9991
2 40716  97.8089  22.7564 0008536 143.9307 216.2484 14.82715480422775
DMC3-FM3                
1 40717U 15032C   23137.44458556  .00000672  00000+0  89736-4 0  9998
2 40717  97.8129  23.8394 0010180 143.1529 217.0386 14.82690341422778
